NORAD_CAT_ID,OBJECT_NAME,OBJECT_TYPE,EPOCH,MEAN_MOTION,ECCENTRICITY,INCLINATION,RA_OF_ASC_NODE,ARG_OF_PERICENTER,MEAN_ANOMALY,BSTAR,MEAN_MOTION_DOT,MEAN_MOTION_DDOT,TLE_LINE0,TLE_LINE1,TLE_LINE2,SEMIMAJOR_AXIS,PERIOD,APOGEE,PERIGEE,DECAYED
53589.0,STARLINK-4673,PAYLOAD,2023-01-07 11:20:29,15.08833817,0.0001631,53.218,39.1192,56.9284,303.1864,0.00015793,2.226e-05,0.0,0 STARLINK-4673,1 53589U 22104B   23007.47256831  .00002226  00000-0  15793-3 0  9997,2 53589  53.2180  39.1192 0001631  56.9284 303.1864 15.08833817 20226,6917.899,95.438,540.893,538.636,0.0
53589.0,STARLINK-4673,PAYLOAD,2023-01-07 12:55:52,15.08835702,0.000174,53.2186,38.822,55.6968,304.4188,-1.4902e-05,-5.25e-06,0.0,0 STARLINK-4673,1 53589U 22104B   23007.53880360 -.00000525  00000-0 -14902-4 0  9998,2 53589  53.2186  38.8220 0001740  55.6968 304.4188 15.08835702 21258,6917.894,95.438,540.962,538.555,0.0
53589.0,STARLINK-4673,PAYLOAD,2023-01-08 12:46:40,15.08841701,0.0001599,53.2181,34.3592,53.4286,306.6853,0.00049351,7.575e-05,0.0,0 STARLINK-4673,1 53589U 22104B   23008.53241360  .00007575  00000-0  49351-3 0  9995,2 53589  53.2181  34.3592 0001599  53.4286 306.6853 15.08841701 21403,6917.875,95.437,540.846,538.634,0.0
53589.0,STARLINK-4673,PAYLOAD,2023-01-08 19:08:12,15.08845278,0.0001748,53.2181,33.1712,51.0272,309.0875,0.00039688,6.035e-05,0.0,0 STARLINK-4673,1 53589U 22104B   23008.79737264  .00006035  00000-0  39688-3 0  9998,2 53589  53.2181  33.1712 0001748  51.0272 309.0875 15.08845278 20424,6917.864000000001,95.437,540.938,538.52,0.0
53589.0,STARLINK-4673,PAYLOAD,2023-01-09 11:02:04,15.08847735,0.0001774,53.2181,30.1989,57.8634,302.253,0.00019675,2.845e-05,0.0,0 STARLINK-4673,1 53589U 22104B   23009.45977275  .00002845  00000-0  19675-3 0  9999,2 53589  53.2181  30.1989 0001774  57.8634 302.2530 15.08847735 21549,6917.857,95.437,540.9490000000002,538.495,0.0
53589.0,STARLINK-4673,PAYLOAD,2023-01-10 10:52:51,15.08840085,0.000167,53.2175,25.7395,49.093,311.0207,5.8463e-05,6.43e-06,0.0,0 STARLINK-4673,1 53589U 22104B   23010.45337526  .00000643  00000-0  58463-4 0  9993,2 53589  53.2175  25.7395 0001670  49.0930 311.0207 15.08840085 20673,6917.88,95.438,540.9,538.59,0.0
53589.0,STARLINK-4673,PAYLOAD,2023-01-11 07:32:52,15.0884619,0.0001797,53.2177,21.8727,58.6785,301.4383,0.00019215,2.772e-05,0.0,0 STARLINK-4673,1 53589U 22104B   23011.31449480  .00002772  00000-0  19215-3 0  9998,2 53589  53.2177  21.8727 0001797  58.6785 301.4383 15.08846190 21824,6917.861,95.437,540.97,538.4830000000002,0.0
53589.0,STARLINK-4673,PAYLOAD,2023-01-11 17:05:11,15.08841533,0.0001781,53.2177,20.0876,60.7425,299.3745,0.00012518,1.705e-05,0.0,0 STARLINK-4673,1 53589U 22104B   23011.71193710  .00001705  00000-0  12518-3 0  9998,2 53589  53.2177  20.0876 0001781  60.7425 299.3745 15.08841533 20864,6917.876,95.437,540.9730000000002,538.509,0.0
53589.0,STARLINK-4673,PAYLOAD,2023-01-12 01:02:07,15.08823177,0.0001513,53.2183,18.6024,60.9889,299.1255,-9.2658e-05,-1.762e-05,0.0,0 STARLINK-4673,1 53589U 22104B   23012.04314679 -.00001762  00000-0 -92658-4 0  9993,2 53589  53.2183  18.6024 0001513  60.9889 299.1255 15.08823177 20912,6917.932,95.439,540.8430000000002,538.75,0.0
53589.0,STARLINK-4673,PAYLOAD,2023-01-12 16:55:59,15.08828655,0.0001416999999999,53.2174,15.6264,61.3912,298.7223,-1.9823e-05,-6.03e-06,0.0,0 STARLINK-4673,1 53589U 22104B   23012.70554690 -.00000603  00000-0 -19823-4 0  9991,2 53589  53.2174  15.6264 0001417  61.3912 298.7223 15.08828655 21018,6917.915,95.438,540.76,538.8,0.0
53589.0,STARLINK-4673,PAYLOAD,2023-01-13 08:49:50,15.08839986,0.0001512,53.2186,12.6538,76.1979,283.9181,0.00018955,2.7300000000000003e-05,0.0,0 STARLINK-4673,1 53589U 22104B   23013.36794782  .00002730  00000-0  18955-3 0  9997,2 53589  53.2186  12.6538 0001512  76.1979 283.9181 15.08839986 21114,6917.88,95.438,540.7909999999999,538.6990000000001,0.0
53589.0,STARLINK-4673,PAYLOAD,2023-01-13 16:46:46,15.08838183,0.0001376999999999,53.218,11.1681,79.8057,280.3091,0.00015898,2.243e-05,0.0,0 STARLINK-4673,1 53589U 22104B   23013.69914943  .00002243  00000-0  15898-3 0  9998,2 53589  53.2180  11.1681 0001377  79.8057 280.3091 15.08838183 22184,6917.886,95.438,540.7040000000001,538.798,0.0
53589.0,STARLINK-4673,PAYLOAD,2023-01-14 22:59:06,15.08841893,0.0002020999999999,53.2189,5.5183,78.1387,281.9831,0.00021559,3.145e-05,0.0,0 STARLINK-4673,1 53589U 22104B   23014.95771303  .00003145  00000-0  21559-3 0  9992,2 53589  53.2189   5.5183 0002021  78.1387 281.9831 15.08841893 21351,6917.875,95.437,541.138,538.342,0.0
53589.0,STARLINK-4673,PAYLOAD,2023-01-15 08:31:24,15.08848409,0.0001876999999999,53.2172,3.7361,75.233,284.887,0.00024065,3.545e-05,0.0,0 STARLINK-4673,1 53589U 22104B   23015.35514917  .00003545  00000-0  24065-3 0  9992,2 53589  53.2172   3.7361 0001877  75.2330 284.8870 15.08848409 22430,6917.855,95.437,541.018,538.4209999999999,0.0
53589.0,STARLINK-4673,PAYLOAD,2023-01-15 16:28:20,15.08848011,0.0001953,53.2168,2.2495,76.3164,283.8045,0.00024368,3.593e-05,0.0,0 STARLINK-4673,1 53589U 22104B   23015.68634903  .00003593  00000-0  24368-3 0  9995,2 53589  53.2168   2.2495 0001953  76.3164 283.8045 15.08848011 22486,6917.856,95.437,541.072,538.37,0.0
53589.0,STARLINK-4673,PAYLOAD,2023-01-16 05:11:24,15.08868349,0.0001267,53.2173,359.8676,86.6106,273.5031,0.0008641,0.00013502,0.0,0 STARLINK-4673,1 53589U 22104B   23016.21625891  .00013502  00000-0  86410-3 0  9998,2 53589  53.2173 359.8676 0001267  86.6106 273.5031 15.08868349 21545,6917.794,95.436,540.535,538.7819999999999,0.0
53589.0,STARLINK-4673,PAYLOAD,2023-01-16 22:40:40,15.08837629,0.0001675,53.2177,356.5988,79.3036,280.8145,2.9657e-05,1.84e-06,0.0,0 STARLINK-4673,1 53589U 22104B   23016.94490941  .00000184  00000-0  29657-4 0  9997,2 53589  53.2177 356.5988 0001675  79.3036 280.8145 15.08837629 21659,6917.888000000001,95.438,540.911,538.594,0.0
53589.0,STARLINK-4673,PAYLOAD,2023-01-17 08:12:59,15.08820266,0.0001636999999999,53.2176,354.8138,62.0672,298.0486,-0.00020362,-3.525e-05,0.0,0 STARLINK-4673,1 53589U 22104B   23017.34235878 -.00003525  00000-0 -20362-3 0  9995,2 53589  53.2176 354.8138 0001637  62.0672 298.0486 15.08820266 21714,6917.941,95.439,540.938,538.673,0.0
53589.0,STARLINK-4673,PAYLOAD,2023-01-17 22:31:28,15.08833684,0.0001391,53.2188,352.1376,59.6497,300.4633,0.00025556,3.781e-05,0.0,0 STARLINK-4673,1 53589U 22104B   23017.93852150  .00003781  00000-0  25556-3 0  9990,2 53589  53.2188 352.1376 0001391  59.6497 300.4633 15.08833684 21806,6917.9,95.438,540.727,538.802,0.0
53589.0,STARLINK-4673,PAYLOAD,2023-01-18 08:03:46,15.08871264,0.0001621999999999,53.2187,350.3535,66.3509,293.7653,0.0017446999999999,0.00027612,0.0,0 STARLINK-4673,1 53589U 22104B   23018.33595717  .00027612  00000-0  17447-2 0  9996,2 53589  53.2187 350.3535 0001622  66.3509 293.7653 15.08871264 21866,6917.785,95.436,540.7719999999999,538.528,0.0
53589.0,STARLINK-4673,PAYLOAD,2023-01-19 01:33:00,15.088776800000002,0.0001585999999999,53.218,347.0823,113.7362,246.3797,0.001577,0.00024925,0.0,0 STARLINK-4673,1 53589U 22104B   23019.06458786  .00024925  00000-0  15770-2 0  9992,2 53589  53.2180 347.0823 0001586 113.7362 246.3797 15.08877680 21978,6917.765,95.435,540.727,538.533,0.0
53589.0,STARLINK-4673,PAYLOAD,2023-01-19 07:54:32,15.0889023,0.0001200999999999,53.2181,345.8927,67.8173,292.2947,0.0017772,0.00028148,0.0,0 STARLINK-4673,1 53589U 22104B   23019.32954170  .00028148  00000-0  17772-2 0  9994,2 53589  53.2181 345.8927 0001201  67.8173 292.2947 15.08890230 23035,6917.727,95.434,540.423,538.761,0.0
53589.0,STARLINK-4673,PAYLOAD,2023-01-20 04:34:34,15.08846263,0.000155,53.2172,342.0239,79.6805,280.4362,0.0017825,0.00028199,0.0,0 STARLINK-4673,1 53589U 22104B   23020.19067450  .00028199  00000-0  17825-2 0  9992,2 53589  53.2172 342.0239 0001550  79.6805 280.4362 15.08846263 22148,6917.861,95.437,540.799,538.654,0.0
53589.0,STARLINK-4673,PAYLOAD,2023-01-20 14:06:53,15.08846743,5.47e-05,53.2178,340.2434,92.1334,267.9721,0.0014847999999999,0.00023426,0.0,0 STARLINK-4673,1 53589U 22104B   23020.58811503  .00023426  00000-0  14848-2 0  9991,2 53589  53.2178 340.2434 0000547  92.1334 267.9721 15.08846743 22202,6917.86,95.437,540.1030000000001,539.346,0.0
53589.0,STARLINK-4673,PAYLOAD,2023-01-21 01:14:35,15.08833509,0.0001868,53.2189,338.1619,90.4113,269.7093,0.00064752,0.0001002999999999,0.0,0 STARLINK-4673,1 53589U 22104B   23021.05180341  .00010030  00000-0  64752-3 0  9990,2 53589  53.2189 338.1619 0001868  90.4113 269.7093 15.08833509 22273,6917.9,95.438,541.057,538.4730000000001,0.0
53589.0,STARLINK-4673,PAYLOAD,2023-01-22 02:40:45,15.08861126,0.000167,53.2196,333.4029,80.5125,279.6056,0.0011025,0.00017312,0.0,0 STARLINK-4673,1 53589U 22104B   23022.11164092  .00017312  00000-0  11025-2 0  9997,2 53589  53.2196 333.4029 0001670  80.5125 279.6056 15.08861126 22431,6917.816,95.436,540.836,538.526,0.0
53589.0,STARLINK-4673,PAYLOAD,2023-01-22 13:48:28,15.08837742,0.0002473,53.2192,331.3231,73.5405,286.5858,4.0024e-05,3.49e-06,0.0,0 STARLINK-4673,1 53589U 22104B   23022.57532570  .00000349  00000-0  40024-4 0  9992,2 53589  53.2192 331.3231 0002473  73.5405 286.5858 15.08837742 22506,6917.887,95.438,541.4630000000001,538.0409999999999,0.0
53589.0,STARLINK-4673,PAYLOAD,2023-01-24 05:33:06,15.0886471,0.0001482,53.2176,323.8871,86.6284,273.4877,0.0010946,0.00017187,0.0,0 STARLINK-4673,1 53589U 22104B   23024.23132183  .00017187  00000-0  10946-2 0  9999,2 53589  53.2176 323.8871 0001482  86.6284 273.4877 15.08864710 22751,6917.805,95.436,540.695,538.645,0.0
53589.0,STARLINK-4673,PAYLOAD,2023-01-25 02:13:06,15.08859504,0.0001244,53.2176,320.0255,74.1564,285.9566,0.0013035,0.00020529,0.0,0 STARLINK-4673,1 53589U 22104B   23025.09243906  .00020529  00000-0  13035-2 0  9996,2 53589  53.2176 320.0255 0001244  74.1564 285.9566 15.08859504 22887,6917.821,95.436,540.5459999999999,538.825,0.0
